HAWK-8A                 
1 59443U 24066B   26068.40724718  .00002325  00000+0  20899-3 0  9990
2 59443  45.5937  72.3645 0004214 254.4969 105.5447 14.98766556104869
STARLINK-34275          
1 64413U 25129B   26068.40280545 -.00002252  00000+0 -18102-3 0  9994
2 64413  70.0009  75.2092 0003651 265.5021  94.5721 14.98326520 41246
