[{"OBJECT_NAME":"HAWK-8A","OBJECT_ID":"2024-066B","EPOCH":"2026-03-09T09:46:26.156352","MEAN_MOTION":14.98766556,"ECCENTRICITY":0.00042143,"INCLINATION":45.5937,"RA_OF_ASC_NODE":72.3645,"ARG_OF_PERICENTER":254.4969,"MEAN_ANOMALY":105.5447,"EPHEMERIS_TYPE":0,"CLASSIFICATION_TYPE":"U","NORAD_CAT_ID":59443,"ELEMENT_SET_NO":999,"REV_AT_EPOCH":10486,"BSTAR":0.0002089936,"MEAN_MOTION_DOT":2.325e-5,"MEAN_MOTION_DDOT":0},{"OBJECT_NAME":"STARLINK-34275","OBJECT_ID":"2025-129B","EPOCH":"2026-03-09T09:40:02.390880","MEAN_MOTION":14.9832652,"ECCENTRICITY":0.00036514,"INCLINATION":70.0009,"RA_OF_ASC_NODE":75.2092,"ARG_OF_PERICENTER":265.5021,"MEAN_ANOMALY":94.5721,"EPHEMERIS_TYPE":0,"CLASSIFICATION_TYPE":"U","NORAD_CAT_ID":64413,"ELEMENT_SET_NO":999,"REV_AT_EPOCH":4124,"BSTAR":-0.00018101844,"MEAN_MOTION_DOT":-2.252e-5,"MEAN_MOTION_DDOT":0}]
